{
    "links": {
        "self": "http://www.neowsapp.com/rest/v1/neo/3442843?api_key=iIulBulltgU6a56xZRHN4H3l9WmuAYTsLGpBGhQ2"
    },
    "id": "3442843",
    "neo_reference_id": "3442843",
    "name": "(2008 YA29)",
    "designation": "2008 YA29",
    "nasa_jpl_url": "http://ssd.jpl.nasa.gov/sbdb.cgi?sstr=3442843",
    "absolute_magnitude_h": 24.9,
    "estimated_diameter": {
        "kilometers": {
            "estimated_diameter_min": 0.0278326768,
            "estimated_diameter_max": 0.0622357573
        },
        "meters": {
            "estimated_diameter_min": 27.8326768072,
            "estimated_diameter_max": 62.2357573367
        },
        "miles": {
            "estimated_diameter_min": 0.0172944182,
            "estimated_diameter_max": 0.0386714948
        },
        "feet": {
            "estimated_diameter_min": 91.3145593761,
            "estimated_diameter_max": 204.1855621004
        }
    },
    "is_potentially_hazardous_asteroid": false,
    "close_approach_data": [
        {
            "close_approach_date": "2008-12-26",
            "close_approach_date_full": "2008-Dec-26 10:39",
            "epoch_date_close_approach": 1230287940000,
            "relative_velocity": {
                "kilometers_per_second": "6.3059661345",
                "kilometers_per_hour": "22701.4780840618",
                "miles_per_hour": "14105.8156461772"
            },
            "miss_distance": {
                "astronomical": "0.082562228",
                "lunar": "32.116706692",
                "kilometers": "12351133.45125436",
                "miles": "7674638.448895768"
            },
            "orbiting_body": "Earth"
        }
    ],
    "orbital_data": {
        "orbit_id": "13",
        "orbit_determination_date": "2017-04-06 09:01:48",
        "first_observation_date": "2008-12-30",
        "last_observation_date": "2009-01-25",
        "data_arc_in_days": 26,
        "observations_used": 39,
        "orbit_uncertainty": "7",
        "minimum_orbit_intersection": ".0730422",
        "jupiter_tisserand_invariant": "3.608",
        "epoch_osculation": "2459000.5",
        "eccentricity": ".4898716048487236",
        "semi_major_axis": "2.069819223922047",
        "inclination": "5.960483470903894",
        "ascending_node_longitude": "277.1971120641413",
        "orbital_period": "1087.669752547766",
        "perihelion_distance": "1.055873558952614",
        "perihelion_argument": "184.2245274954698",
        "aphelion_distance": "3.083764888891479",
        "perihelion_time": "2459188.676946972933",
        "mean_anomaly": "297.7166637652905",
        "mean_motion": ".3309828182283578",
        "equinox": "J2000",
        "orbit_class": {
            "orbit_class_type": "AMO",
            "orbit_class_description": "Near-Earth asteroid orbits similar to that of 1221 Amor",
            "orbit_class_range": "1.017 AU < q (perihelion) < 1.3 AU"
        }
    },
    "is_sentry_object": false
}